0 DMSP 5D-2 F11 DEB
1 29078U 91082BZ  13281.40381769  .00001470  00000-0  71543-3 0  3864
2 29078 098.8172 260.9198 0028860 170.8197 189.3443 14.19538617464668
0 DMSP 5D-2 F11 DEB
1 29078U 91082BZ  13284.15273459  .00001515  00000-0  73654-3 0  3871
2 29078 098.8153 263.6481 0028845 168.4493 191.8296 14.19549260465051
0 DMSP 5D-2 F11 DEB
1 29078U 91082BZ  13289.15710139  .00001578  00000-0  76570-3 0  3887
2 29078 098.8144 268.6227 0030216 158.6549 201.7461 14.19568401465763
0 DMSP 5D-2 F11 DEB
1 29078U 91082BZ  13292.18786098  .00001738  00000-0  84245-3 0  3898
2 29078 098.8131 271.6495 0022356 137.9469 222.3894 14.19583295466192
0 DMSP 5D-2 F11 DEB
1 29078U 91082BZ  13294.16136817  .00001786  00000-0  86504-3 0  3901
2 29078 098.8129 273.6141 0022269 131.1190 229.2641 14.19592562466473
